{
    "links": {
        "self": "http://www.neowsapp.com/rest/v1/neo/3771066?api_key=iIulBulltgU6a56xZRHN4H3l9WmuAYTsLGpBGhQ2"
    },
    "id": "3771066",
    "neo_reference_id": "3771066",
    "name": "(2017 EJ4)",
    "designation": "2017 EJ4",
    "nasa_jpl_url": "http://ssd.jpl.nasa.gov/sbdb.cgi?sstr=3771066",
    "absolute_magnitude_h": 25.4,
    "estimated_diameter": {
        "kilometers": {
            "estimated_diameter_min": 0.022108281,
            "estimated_diameter_max": 0.0494356193
        },
        "meters": {
            "estimated_diameter_min": 22.1082810359,
            "estimated_diameter_max": 49.435619262
        },
        "miles": {
            "estimated_diameter_min": 0.0137374447,
            "estimated_diameter_max": 0.0307178602
        },
        "feet": {
            "estimated_diameter_min": 72.5337327539,
            "estimated_diameter_max": 162.1903570994
        }
    },
    "is_potentially_hazardous_asteroid": false,
    "close_approach_data": [
        {
            "close_approach_date": "2017-03-01",
            "close_approach_date_full": "2017-Mar-01 14:14",
            "epoch_date_close_approach": 1488377640000,
            "relative_velocity": {
                "kilometers_per_second": "6.7758097223",
                "kilometers_per_hour": "24392.9150002314",
                "miles_per_hour": "15156.8087677827"
            },
            "miss_distance": {
                "astronomical": "0.0435180056",
                "lunar": "16.9285041784",
                "kilometers": "6510200.944408072",
                "miles": "4045251.2860605136"
            },
            "orbiting_body": "Earth"
        },
        {
            "close_approach_date": "2020-02-18",
            "close_approach_date_full": "2020-Feb-18 10:38",
            "epoch_date_close_approach": 1582022280000,
            "relative_velocity": {
                "kilometers_per_second": "15.0085607982",
                "kilometers_per_hour": "54030.8188735499",
                "miles_per_hour": "33572.6496495121"
            },
            "miss_distance": {
                "astronomical": "0.0883202318",
                "lunar": "34.3565701702",
                "kilometers": "13212518.555186266",
                "miles": "8209878.3330758308"
            },
            "orbiting_body": "Mars"
        }
    ],
    "orbital_data": {
        "orbit_id": "4",
        "orbit_determination_date": "2017-04-06 08:19:36",
        "first_observation_date": "2017-03-08",
        "last_observation_date": "2017-03-26",
        "data_arc_in_days": 18,
        "observations_used": 33,
        "orbit_uncertainty": "7",
        "minimum_orbit_intersection": ".0227812",
        "jupiter_tisserand_invariant": "3.744",
        "epoch_osculation": "2459000.5",
        "eccentricity": ".4824204800335645",
        "semi_major_axis": "1.94648591395095",
        "inclination": "2.149227405869288",
        "ascending_node_longitude": "126.6242341240442",
        "orbital_period": "991.9169799323711",
        "perihelion_distance": "1.007461244964161",
        "perihelion_argument": "16.31277625620887",
        "aphelion_distance": "2.885510582937739",
        "perihelion_time": "2458791.205569996096",
        "mean_anomaly": "75.95998085096053",
        "mean_motion": ".3629335995685292",
        "equinox": "J2000",
        "orbit_class": {
            "orbit_class_type": "APO",
            "orbit_class_description": "Near-Earth asteroid orbits which cross the Earth’s orbit similar to that of 1862 Apollo",
            "orbit_class_range": "a (semi-major axis) > 1.0 AU; q (perihelion) < 1.017 AU"
        }
    },
    "is_sentry_object": false
}